SHIJIAN-16 (SJ-16)      
1 39358U 13057A   26106.83940574  .00000895  00000+0  89953-4 0  9998
2 39358  74.9699 112.8604 0015784  14.4101 345.7534 14.92460591677194
SL-4 R/B                
1 39679U 14021B   26106.85360721  .00008501  00000+0  18636-3 0  9999
2 39679  51.6052 150.9057 0093182 242.5215 116.6273 15.40489571662156
ALOS-2                  
1 39766U 14029A   26106.86377483 -.00000191  00000+0 -18756-4 0  9991
2 39766  97.9200 204.9061 0001853  90.4688 269.6736 14.79453338642518
YAOGAN-29               
1 41038U 15069A   26106.84823142  .00000476  00000+0  65176-4 0  9999
2 41038  98.0088 135.3705 0001141 152.8279 207.2994 14.83036007561531
ASTRO-H (HITOMI)        
1 41337U 16012A   26106.70612635  .00001736  00000+0  97820-4 0  9999
2 41337  30.9981 111.1686 0009533 353.4409   6.6103 15.10232595557985
HXMT (HUIYAN)           
1 42758U 17034A   26106.61961488  .00002785  00000+0  14494-3 0  9995
2 42758  43.0131 165.7165 0030462 115.6593 244.7406 15.17935435488309
SAOCOM 1A               
1 43641U 18076A   26106.83644648  .00000440  00000+0  61893-4 0  9996
2 43641  97.8900 294.4714 0001490  90.7005 269.4379 14.82148950407013
H-2A R/B                
1 43682U 18084L   26106.88452084  .00010651  00000+0  24258-3 0  9994
2 43682  98.8672 332.4773 0023107 249.0836 110.7934 15.42925134411668
SAOCOM 1B               
1 46265U 20059A   26106.80018131  .00000354  00000+0  50996-4 0  9990
2 46265  97.8886 293.5299 0001445  85.8595 274.2784 14.82159950304391
CSS (TIANHE)            
1 48274U 21035A   26106.76755394  .00015996  00000+0  17822-3 0  9999
2 48274  41.4683 336.1456 0005888 221.8433 138.1956 15.62454512283565
COSMOS 2550             
1 48865U 21056A   26106.59854913 -.00000197  00000+0 -14878-6 0  9996
2 48865  67.1399 286.2093 0008413 269.1949  90.8242 15.33827619269270
CZ-2C R/B               
1 52794U 22058K   26106.53794662  .00025006  00000+0  33203-3 0  9997
2 52794  50.1857 123.1691 0040258   2.8425 357.2768 15.57059349216025
CZ-2C R/B               
1 54039U 22132E   26106.57649495  .00027884  00000+0  27901-3 0  9995
2 54039  97.2935 111.1486 0013370 314.1438  45.8721 15.65432504196297
