[
    {
        "OBJECT_NAME": "SHIJIAN-16 (SJ-16)",
        "OBJECT_ID": "2013-057A",
        "EPOCH": "2026-04-16T20:08:44.655936",
        "MEAN_MOTION": 14.92460591,
        "ECCENTRICITY": 0.0015784,
        "INCLINATION": 74.9699,
        "RA_OF_ASC_NODE": 112.8604,
        "ARG_OF_PERICENTER": 14.4101,
        "MEAN_ANOMALY": 345.7534,
        "EPHEMERIS_TYPE": 0,
        "CLASSIFICATION_TYPE": "U",
        "NORAD_CAT_ID": 39358,
        "ELEMENT_SET_NO": 999,
        "REV_AT_EPOCH": 67719,
        "BSTAR": 8.9953e-05,
        "MEAN_MOTION_DOT": 8.95e-06,
        "MEAN_MOTION_DDOT": 0
    },
    {
        "OBJECT_NAME": "SL-4 R/B",
        "OBJECT_ID": "2014-021B",
        "EPOCH": "2026-04-16T20:29:11.662944",
        "MEAN_MOTION": 15.40489571,
        "ECCENTRICITY": 0.0093182,
        "INCLINATION": 51.6052,
        "RA_OF_ASC_NODE": 150.9057,
        "ARG_OF_PERICENTER": 242.5215,
        "MEAN_ANOMALY": 116.6273,
        "EPHEMERIS_TYPE": 0,
        "CLASSIFICATION_TYPE": "U",
        "NORAD_CAT_ID": 39679,
        "ELEMENT_SET_NO": 999,
        "REV_AT_EPOCH": 66215,
        "BSTAR": 0.00018636,
        "MEAN_MOTION_DOT": 8.501e-05,
        "MEAN_MOTION_DDOT": 0
    },
    {
        "OBJECT_NAME": "ALOS-2",
        "OBJECT_ID": "2014-029A",
        "EPOCH": "2026-04-16T20:43:50.145312",
        "MEAN_MOTION": 14.79453338,
        "ECCENTRICITY": 0.0001853,
        "INCLINATION": 97.92,
        "RA_OF_ASC_NODE": 204.9061,
        "ARG_OF_PERICENTER": 90.4688,
        "MEAN_ANOMALY": 269.6736,
        "EPHEMERIS_TYPE": 0,
        "CLASSIFICATION_TYPE": "U",
        "NORAD_CAT_ID": 39766,
        "ELEMENT_SET_NO": 999,
        "REV_AT_EPOCH": 64251,
        "BSTAR": -1.8756e-05,
        "MEAN_MOTION_DOT": -1.91e-06,
        "MEAN_MOTION_DDOT": 0
    },
    {
        "OBJECT_NAME": "YAOGAN-29",
        "OBJECT_ID": "2015-069A",
        "EPOCH": "2026-04-16T20:21:27.194688",
        "MEAN_MOTION": 14.83036007,
        "ECCENTRICITY": 0.0001141,
        "INCLINATION": 98.0088,
        "RA_OF_ASC_NODE": 135.3705,
        "ARG_OF_PERICENTER": 152.8279,
        "MEAN_ANOMALY": 207.2994,
        "EPHEMERIS_TYPE": 0,
        "CLASSIFICATION_TYPE": "U",
        "NORAD_CAT_ID": 41038,
        "ELEMENT_SET_NO": 999,
        "REV_AT_EPOCH": 56153,
        "BSTAR": 6.5176e-05,
        "MEAN_MOTION_DOT": 4.76e-06,
        "MEAN_MOTION_DDOT": 0
    },
    {
        "OBJECT_NAME": "ASTRO-H (HITOMI)",
        "OBJECT_ID": "2016-012A",
        "EPOCH": "2026-04-16T16:56:49.316640",
        "MEAN_MOTION": 15.10232595,
        "ECCENTRICITY": 0.0009533,
        "INCLINATION": 30.9981,
        "RA_OF_ASC_NODE": 111.1686,
        "ARG_OF_PERICENTER": 353.4409,
        "MEAN_ANOMALY": 6.6103,
        "EPHEMERIS_TYPE": 0,
        "CLASSIFICATION_TYPE": "U",
        "NORAD_CAT_ID": 41337,
        "ELEMENT_SET_NO": 999,
        "REV_AT_EPOCH": 55798,
        "BSTAR": 9.782e-05,
        "MEAN_MOTION_DOT": 1.736e-05,
        "MEAN_MOTION_DDOT": 0
    },
    {
        "OBJECT_NAME": "HXMT (HUIYAN)",
        "OBJECT_ID": "2017-034A",
        "EPOCH": "2026-04-16T14:52:14.725632",
        "MEAN_MOTION": 15.17935435,
        "ECCENTRICITY": 0.0030462,
        "INCLINATION": 43.0131,
        "RA_OF_ASC_NODE": 165.7165,
        "ARG_OF_PERICENTER": 115.6593,
        "MEAN_ANOMALY": 244.7406,
        "EPHEMERIS_TYPE": 0,
        "CLASSIFICATION_TYPE": "U",
        "NORAD_CAT_ID": 42758,
        "ELEMENT_SET_NO": 999,
        "REV_AT_EPOCH": 48830,
        "BSTAR": 0.00014494,
        "MEAN_MOTION_DOT": 2.785e-05,
        "MEAN_MOTION_DDOT": 0
    },
    {
        "OBJECT_NAME": "SAOCOM 1A",
        "OBJECT_ID": "2018-076A",
        "EPOCH": "2026-04-16T20:04:28.975872",
        "MEAN_MOTION": 14.8214895,
        "ECCENTRICITY": 0.000149,
        "INCLINATION": 97.89,
        "RA_OF_ASC_NODE": 294.4714,
        "ARG_OF_PERICENTER": 90.7005,
        "MEAN_ANOMALY": 269.4379,
        "EPHEMERIS_TYPE": 0,
        "CLASSIFICATION_TYPE": "U",
        "NORAD_CAT_ID": 43641,
        "ELEMENT_SET_NO": 999,
        "REV_AT_EPOCH": 40701,
        "BSTAR": 6.1893e-05,
        "MEAN_MOTION_DOT": 4.4e-06,
        "MEAN_MOTION_DDOT": 0
    },
    {
        "OBJECT_NAME": "H-2A R/B",
        "OBJECT_ID": "2018-084L",
        "EPOCH": "2026-04-16T21:13:42.600576",
        "MEAN_MOTION": 15.42925134,
        "ECCENTRICITY": 0.0023107,
        "INCLINATION": 98.8672,
        "RA_OF_ASC_NODE": 332.4773,
        "ARG_OF_PERICENTER": 249.0836,
        "MEAN_ANOMALY": 110.7934,
        "EPHEMERIS_TYPE": 0,
        "CLASSIFICATION_TYPE": "U",
        "NORAD_CAT_ID": 43682,
        "ELEMENT_SET_NO": 999,
        "REV_AT_EPOCH": 41166,
        "BSTAR": 0.00024258,
        "MEAN_MOTION_DOT": 0.00010651,
        "MEAN_MOTION_DDOT": 0
    },
    {
        "OBJECT_NAME": "SAOCOM 1B",
        "OBJECT_ID": "2020-059A",
        "EPOCH": "2026-04-16T19:12:15.665184",
        "MEAN_MOTION": 14.8215995,
        "ECCENTRICITY": 0.0001445,
        "INCLINATION": 97.8886,
        "RA_OF_ASC_NODE": 293.5299,
        "ARG_OF_PERICENTER": 85.8595,
        "MEAN_ANOMALY": 274.2784,
        "EPHEMERIS_TYPE": 0,
        "CLASSIFICATION_TYPE": "U",
        "NORAD_CAT_ID": 46265,
        "ELEMENT_SET_NO": 999,
        "REV_AT_EPOCH": 30439,
        "BSTAR": 5.0996e-05,
        "MEAN_MOTION_DOT": 3.54e-06,
        "MEAN_MOTION_DDOT": 0
    },
    {
        "OBJECT_NAME": "CSS (TIANHE)",
        "OBJECT_ID": "2021-035A",
        "EPOCH": "2026-04-16T18:25:16.660416",
        "MEAN_MOTION": 15.62454512,
        "ECCENTRICITY": 0.0005888,
        "INCLINATION": 41.4683,
        "RA_OF_ASC_NODE": 336.1456,
        "ARG_OF_PERICENTER": 221.8433,
        "MEAN_ANOMALY": 138.1956,
        "EPHEMERIS_TYPE": 0,
        "CLASSIFICATION_TYPE": "U",
        "NORAD_CAT_ID": 48274,
        "ELEMENT_SET_NO": 999,
        "REV_AT_EPOCH": 28356,
        "BSTAR": 0.00017822,
        "MEAN_MOTION_DOT": 0.00015996,
        "MEAN_MOTION_DDOT": 0
    },
    {
        "OBJECT_NAME": "COSMOS 2550",
        "OBJECT_ID": "2021-056A",
        "EPOCH": "2026-04-16T14:21:54.644832",
        "MEAN_MOTION": 15.33827619,
        "ECCENTRICITY": 0.0008413,
        "INCLINATION": 67.1399,
        "RA_OF_ASC_NODE": 286.2093,
        "ARG_OF_PERICENTER": 269.1949,
        "MEAN_ANOMALY": 90.8242,
        "EPHEMERIS_TYPE": 0,
        "CLASSIFICATION_TYPE": "U",
        "NORAD_CAT_ID": 48865,
        "ELEMENT_SET_NO": 999,
        "REV_AT_EPOCH": 26927,
        "BSTAR": -1.4878e-07,
        "MEAN_MOTION_DOT": -1.97e-06,
        "MEAN_MOTION_DDOT": 0
    },
    {
        "OBJECT_NAME": "CZ-2C R/B",
        "OBJECT_ID": "2022-058K",
        "EPOCH": "2026-04-16T12:54:38.587968",
        "MEAN_MOTION": 15.57059349,
        "ECCENTRICITY": 0.0040258,
        "INCLINATION": 50.1857,
        "RA_OF_ASC_NODE": 123.1691,
        "ARG_OF_PERICENTER": 2.8425,
        "MEAN_ANOMALY": 357.2768,
        "EPHEMERIS_TYPE": 0,
        "CLASSIFICATION_TYPE": "U",
        "NORAD_CAT_ID": 52794,
        "ELEMENT_SET_NO": 999,
        "REV_AT_EPOCH": 21602,
        "BSTAR": 0.00033203,
        "MEAN_MOTION_DOT": 0.00025006,
        "MEAN_MOTION_DDOT": 0
    },
    {
        "OBJECT_NAME": "CZ-2C R/B",
        "OBJECT_ID": "2022-132E",
        "EPOCH": "2026-04-16T13:50:09.163680",
        "MEAN_MOTION": 15.65432504,
        "ECCENTRICITY": 0.001337,
        "INCLINATION": 97.2935,
        "RA_OF_ASC_NODE": 111.1486,
        "ARG_OF_PERICENTER": 314.1438,
        "MEAN_ANOMALY": 45.8721,
        "EPHEMERIS_TYPE": 0,
        "CLASSIFICATION_TYPE": "U",
        "NORAD_CAT_ID": 54039,
        "ELEMENT_SET_NO": 999,
        "REV_AT_EPOCH": 19629,
        "BSTAR": 0.00027901,
        "MEAN_MOTION_DOT": 0.00027884,
        "MEAN_MOTION_DDOT": 0
    }
]